[
    {
        "Altitude(m)": 605470.7612230524,
        "Argument of Periapsis(deg)": 0.0,
        "Eccentricity": 0.0,
        "Inclination(deg)": 60.0,
        "Latitude(deg)": 27.98811271629786,
        "Longitude(deg)": -2.737114050273643,
        "Mean Anomaly(deg)": -212.7273,
        "RAAN(deg)": 295.00000000000006,
        "Satellite Name": "Test1 1307",
        "Satellite Number": 1307,
        "Semi-Major Axis(m)": 6980739.136638005,
        "Time(s)": 0
    },
    {
        "Altitude(m)": 605395.7996787295,
        "Argument of Periapsis(deg)": 0.00010418945913296404,
        "Eccentricity": 0.0,
        "Inclination(deg)": 60.0,
        "Latitude(deg)": 27.473804121712817,
        "Longitude(deg)": -2.383925250280812,
        "Mean Anomaly(deg)": -212.10719385453817,
        "RAAN(deg)": 294.99957995086027,
        "Satellite Name": "Test1 1307",
        "Satellite Number": 1307,
        "Semi-Major Axis(m)": 6980739.136638005,
        "Time(s)": 10
    }
]